{"type":"FeatureCollection","features":[{"type":"Feature","properties":{"name":"Vail","country":"USA"},"geometry":{"type":"Point","coordinates":[-106.3742,39.6061]}},{"type":"Feature","properties":{"name":"Breckenridge","country":"USA"},"geometry":{"type":"Point","coordinates":[-106.0384,39.4817]}},{"type":"Feature","properties":{"name":"Keystone","country":"USA"},"geometry":{"type":"Point","coordinates":[-105.9347,39.6069]}},{"type":"Feature","properties":{"name":"Copper Mountain","country":"USA"},"geometry":{"type":"Point","coordinates":[-106.1561,39.5022]}},{"type":"Feature","properties":{"name":"Aspen Mountain","country":"USA"},"geometry":{"type":"Point","coordinates":[-106.8183,39.1864]}},{"type":"Feature","properties":{"name":"Snowmass","country":"USA"},"geometry":{"type":"Point","coordinates":[-106.9513,39.2089]}},{"type":"Feature","properties":{"name":"Winter Park","country":"USA"},"geometry":{"type":"Point","coordinates":[-105.7628,39.8868]}},{"type":"Feature","properties":{"name":"Steamboat","country":"USA"},"geometry":{"type":"Point","coordinates":[-106.8075,40.4572]}},{"type":"Feature","properties":{"name":"Telluride","country":"USA"},"geometry":{"type":"Point","coordinates":[-107.8123,37.9375]}},{"type":"Feature","properties":{"name":"Crested Butte","country":"USA"},"geometry":{"type":"Point","coordinates":[-106.9658,38.8997]}},{"type":"Feature","properties":{"name":"Park City","country":"USA"},"geometry":{"type":"Point","coordinates":[-111.508,40.6514]}},{"type":"Feature","properties":{"name":"Deer Valley","country":"USA"},"geometry":{"type":"Point","coordinates":[-111.4906,40.6374]}},{"type":"Feature","properties":{"name":"Jackson Hole","country":"USA"},"geometry":{"type":"Point","coordinates":[-110.826,43.5875]}},{"type":"Feature","properties":{"name":"Big Sky","country":"USA"},"geometry":{"type":"Point","coordinates":[-111.4014,45.285]}},{"type":"Feature","properties":{"name":"Sun Valley","country":"USA"},"geometry":{"type":"Point","coordinates":[-114.3547,43.6807]}},{"type":"Feature","properties":{"name":"Whistler Blackcomb","country":"Canada"},"geometry":{"type":"Point","coordinates":[-122.954,50.1163]}},{"type":"Feature","properties":{"name":"Banff Sunshine","country":"Canada"},"geometry":{"type":"Point","coordinates":[-115.7769,51.0847]}},{"type":"Feature","properties":{"name":"Lake Louise","country":"Canada"},"geometry":{"type":"Point","coordinates":[-116.162,51.4419]}},{"type":"Feature","properties":{"name":"Chamonix","country":"France"},"geometry":{"type":"Point","coordinates":[6.8694,45.9237]}},{"type":"Feature","properties":{"name":"Zermatt","country":"Switzerland"},"geometry":{"type":"Point","coordinates":[7.7491,46.0207]}},{"type":"Feature","properties":{"name":"St. Anton","country":"Austria"},"geometry":{"type":"Point","coordinates":[10.2637,47.1325]}},{"type":"Feature","properties":{"name":"Cortina","country":"Italy"},"geometry":{"type":"Point","coordinates":[12.135,46.5405]}},{"type":"Feature","properties":{"name":"Niseko","country":"Japan"},"geometry":{"type":"Point","coordinates":[140.687,42.8048]}},{"type":"Feature","properties":{"name":"Hakuba","country":"Japan"},"geometry":{"type":"Point","coordinates":[137.8618,36.6982]}},{"type":"Feature","properties":{"name":"Beaver Creek","country":"USA"},"geometry":{"type":"Point","coordinates":[-106.5165,39.6042]}},{"type":"Feature","properties":{"name":"Arrowhead","country":"USA"},"geometry":{"type":"Point","coordinates":[-106.521,39.608]}},{"type":"Feature","properties":{"name":"Bachelor Gulch","country":"USA"},"geometry":{"type":"Point","coordinates":[-106.54,39.615]}},{"type":"Feature","properties":{"name":"Arapahoe Basin","country":"USA"},"geometry":{"type":"Point","coordinates":[-105.8717,39.6425]}},{"type":"Feature","properties":{"name":"Loveland","country":"USA"},"geometry":{"type":"Point","coordinates":[-105.8953,39.68]}},{"type":"Feature","properties":{"name":"Echo Mountain","country":"USA"},"geometry":{"type":"Point","coordinates":[-105.466,39.685]}},{"type":"Feature","properties":{"name":"Eldora","country":"USA"},"geometry":{"type":"Point","coordinates":[-105.5667,39.9372]}},{"type":"Feature","properties":{"name":"Monarch Mountain","country":"USA"},"geometry":{"type":"Point","coordinates":[-106.3322,38.5122]}},{"type":"Feature","properties":{"name":"Ski Cooper","country":"USA"},"geometry":{"type":"Point","coordinates":[-106.2897,39.3603]}},{"type":"Feature","properties":{"name":"Powderhorn","country":"USA"},"geometry":{"type":"Point","coordinates":[-108.15,39.07]}},{"type":"Feature","properties":{"name":"Sunlight Mountain","country":"USA"},"geometry":{"type":"Point","coordinates":[-107.3389,39.3997]}},{"type":"Feature","properties":{"name":"Purgatory","country":"USA"},"geometry":{"type":"Point","coordinates":[-107.8378,37.6303]}},{"type":"Feature","properties":{"name":"Wolf Creek","country":"USA"},"geometry":{"type":"Point","coordinates":[-106.7933,37.4725]}},{"type":"Feature","properties":{"name":"Silverton Mountain","country":"USA"},"geometry":{"type":"Point","coordinates":[-107.6642,37.8847]}},{"type":"Feature","properties":{"name":"Howelsen Hill","country":"USA"},"geometry":{"type":"Point","coordinates":[-106.8325,40.48]}},{"type":"Feature","properties":{"name":"Granby Ranch","country":"USA"},"geometry":{"type":"Point","coordinates":[-105.899,40.045]}},{"type":"Feature","properties":{"name":"Snowy Range","country":"USA"},"geometry":{"type":"Point","coordinates":[-106.35,41.35]}},{"type":"Feature","properties":{"name":"Hogadon Basin","country":"USA"},"geometry":{"type":"Point","coordinates":[-106.34,42.745]}},{"type":"Feature","properties":{"name":"Antelope Butte","country":"USA"},"geometry":{"type":"Point","coordinates":[-107.03,44.61]}},{"type":"Feature","properties":{"name":"Sleeping Giant","country":"USA"},"geometry":{"type":"Point","coordinates":[-109.2,44.6]}},{"type":"Feature","properties":{"name":"White Pine","country":"USA"},"geometry":{"type":"Point","coordinates":[-109.91,42.98]}},{"type":"Feature","properties":{"name":"Snow King","country":"USA"},"geometry":{"type":"Point","coordinates":[-110.762,43.472]}},{"type":"Feature","properties":{"name":"Grand Targhee","country":"USA"},"geometry":{"type":"Point","coordinates":[-110.953,43.788]}},{"type":"Feature","properties":{"name":"Kelly Canyon","country":"USA"},"geometry":{"type":"Point","coordinates":[-111.63,43.65]}},{"type":"Feature","properties":{"name":"Pebble Creek","country":"USA"},"geometry":{"type":"Point","coordinates":[-111.75,42.78]}},{"type":"Feature","properties":{"name":"Pomerelle","country":"USA"},"geometry":{"type":"Point","coordinates":[-113.61,42.32]}},{"type":"Feature","properties":{"name":"Soldier Mountain","country":"USA"},"geometry":{"type":"Point","coordinates":[-114.83,43.48]}},{"type":"Feature","properties":{"name":"Bogus Basin","country":"USA"},"geometry":{"type":"Point","coordinates":[-116.1,43.76]}},{"type":"Feature","properties":{"name":"Brundage Mountain","country":"USA"},"geometry":{"type":"Point","coordinates":[-116.13,45]}},{"type":"Feature","properties":{"name":"Tamarack","country":"USA"},"geometry":{"type":"Point","coordinates":[-116.36,44.67]}},{"type":"Feature","properties":{"name":"Schweitzer","country":"USA"},"geometry":{"type":"Point","coordinates":[-116.624,48.367]}},{"type":"Feature","properties":{"name":"Lookout Pass","country":"USA"},"geometry":{"type":"Point","coordinates":[-115.696,47.455]}},{"type":"Feature","properties":{"name":"Silver Mountain","country":"USA"},"geometry":{"type":"Point","coordinates":[-116.12,47.54]}},{"type":"Feature","properties":{"name":"49 Degrees North","country":"USA"},"geometry":{"type":"Point","coordinates":[-117.56,48.3]}},{"type":"Feature","properties":{"name":"Mount Spokane","country":"USA"},"geometry":{"type":"Point","coordinates":[-117.1,47.92]}},{"type":"Feature","properties":{"name":"Red Lodge Mountain","country":"USA"},"geometry":{"type":"Point","coordinates":[-109.34,45.19]}},{"type":"Feature","properties":{"name":"Showdown","country":"USA"},"geometry":{"type":"Point","coordinates":[-110.7,46.84]}},{"type":"Feature","properties":{"name":"Discovery Ski","country":"USA"},"geometry":{"type":"Point","coordinates":[-113,46.25]}},{"type":"Feature","properties":{"name":"Montana Snowbowl","country":"USA"},"geometry":{"type":"Point","coordinates":[-114,47.02]}},{"type":"Feature","properties":{"name":"Blacktail Mountain","country":"USA"},"geometry":{"type":"Point","coordinates":[-114.35,48.01]}},{"type":"Feature","properties":{"name":"Turner Mountain","country":"USA"},"geometry":{"type":"Point","coordinates":[-115.6,48.6]}},{"type":"Feature","properties":{"name":"Lost Trail Powder Mtn","country":"USA"},"geometry":{"type":"Point","coordinates":[-114.35,45.75]}},{"type":"Feature","properties":{"name":"Alta","country":"USA"},"geometry":{"type":"Point","coordinates":[-111.638,40.588]}},{"type":"Feature","properties":{"name":"Snowbird","country":"USA"},"geometry":{"type":"Point","coordinates":[-111.657,40.563]}},{"type":"Feature","properties":{"name":"Brighton","country":"USA"},"geometry":{"type":"Point","coordinates":[-111.583,40.598]}},{"type":"Feature","properties":{"name":"Solitude","country":"USA"},"geometry":{"type":"Point","coordinates":[-111.592,40.62]}},{"type":"Feature","properties":{"name":"Snowbasin","country":"USA"},"geometry":{"type":"Point","coordinates":[-111.855,41.216]}},{"type":"Feature","properties":{"name":"Powder Mountain","country":"USA"},"geometry":{"type":"Point","coordinates":[-111.78,41.38]}},{"type":"Feature","properties":{"name":"Nordic Valley","country":"USA"},"geometry":{"type":"Point","coordinates":[-111.85,41.31]}},{"type":"Feature","properties":{"name":"Sundance","country":"USA"},"geometry":{"type":"Point","coordinates":[-111.58,40.39]}},{"type":"Feature","properties":{"name":"Brian Head","country":"USA"},"geometry":{"type":"Point","coordinates":[-112.85,37.69]}},{"type":"Feature","properties":{"name":"Eagle Point","country":"USA"},"geometry":{"type":"Point","coordinates":[-112.34,38]}},{"type":"Feature","properties":{"name":"Cherry Peak","country":"USA"},"geometry":{"type":"Point","coordinates":[-111.85,41.93]}},{"type":"Feature","properties":{"name":"Beaver Mountain","country":"USA"},"geometry":{"type":"Point","coordinates":[-111.75,41.97]}},{"type":"Feature","properties":{"name":"Woodward Park City","country":"USA"},"geometry":{"type":"Point","coordinates":[-111.51,40.68]}},{"type":"Feature","properties":{"name":"Blue Mountain","country":"Canada"},"geometry":{"type":"Point","coordinates":[-119.24,49.07]}},{"type":"Feature","properties":{"name":"Fernie","country":"Canada"},"geometry":{"type":"Point","coordinates":[-115.086,49.463]}},{"type":"Feature","properties":{"name":"Kimberley","country":"Canada"},"geometry":{"type":"Point","coordinates":[-116,49.68]}},{"type":"Feature","properties":{"name":"Panorama","country":"Canada"},"geometry":{"type":"Point","coordinates":[-116.24,50.46]}},{"type":"Feature","properties":{"name":"Kicking Horse","country":"Canada"},"geometry":{"type":"Point","coordinates":[-116.705,51.297]}},{"type":"Feature","properties":{"name":"Revelstoke","country":"Canada"},"geometry":{"type":"Point","coordinates":[-118.15,50.958]}},{"type":"Feature","properties":{"name":"Red Mountain","country":"Canada"},"geometry":{"type":"Point","coordinates":[-117.82,49.1]}},{"type":"Feature","properties":{"name":"Whitewater","country":"Canada"},"geometry":{"type":"Point","coordinates":[-117.15,49.44]}},{"type":"Feature","properties":{"name":"Apex Mountain","country":"Canada"},"geometry":{"type":"Point","coordinates":[-119.9,49.39]}},{"type":"Feature","properties":{"name":"Big White","country":"Canada"},"geometry":{"type":"Point","coordinates":[-118.94,49.72]}},{"type":"Feature","properties":{"name":"Silver Star","country":"Canada"},"geometry":{"type":"Point","coordinates":[-119.06,50.36]}},{"type":"Feature","properties":{"name":"Sun Peaks","country":"Canada"},"geometry":{"type":"Point","coordinates":[-119.94,50.88]}},{"type":"Feature","properties":{"name":"Mount Washington","country":"Canada"},"geometry":{"type":"Point","coordinates":[-125.3,49.75]}},{"type":"Feature","properties":{"name":"Cypress Mountain","country":"Canada"},"geometry":{"type":"Point","coordinates":[-123.21,49.4]}},{"type":"Feature","properties":{"name":"Grouse Mountain","country":"Canada"},"geometry":{"type":"Point","coordinates":[-123.08,49.38]}},{"type":"Feature","properties":{"name":"Mount Seymour","country":"Canada"},"geometry":{"type":"Point","coordinates":[-122.95,49.37]}},{"type":"Feature","properties":{"name":"Marmot Basin","country":"Canada"},"geometry":{"type":"Point","coordinates":[-118.08,52.8]}},{"type":"Feature","properties":{"name":"Castle Mountain","country":"Canada"},"geometry":{"type":"Point","coordinates":[-114.41,49.32]}},{"type":"Feature","properties":{"name":"Nakiska","country":"Canada"},"geometry":{"type":"Point","coordinates":[-115.15,50.94]}},{"type":"Feature","properties":{"name":"Mount Norquay","country":"Canada"},"geometry":{"type":"Point","coordinates":[-115.6,51.2]}},{"type":"Feature","properties":{"name":"Ski Bridger Bowl","country":"USA"},"geometry":{"type":"Point","coordinates":[-110.9,45.82]}},{"type":"Feature","properties":{"name":"Moonlight Basin","country":"USA"},"geometry":{"type":"Point","coordinates":[-111.37,45.3]}},{"type":"Feature","properties":{"name":"Lone Mountain Ranch","country":"USA"},"geometry":{"type":"Point","coordinates":[-111.4,45.27]}},{"type":"Feature","properties":{"name":"Great Divide","country":"USA"},"geometry":{"type":"Point","coordinates":[-112.35,46.75]}},{"type":"Feature","properties":{"name":"Maverick Mountain","country":"USA"},"geometry":{"type":"Point","coordinates":[-113,45.43]}},{"type":"Feature","properties":{"name":"Andes Tower Hills","country":"USA"},"geometry":{"type":"Point","coordinates":[-95.6,45.85]}},{"type":"Feature","properties":{"name":"Lutsen Mountains","country":"USA"},"geometry":{"type":"Point","coordinates":[-90.72,47.66]}},{"type":"Feature","properties":{"name":"Spirit Mountain","country":"USA"},"geometry":{"type":"Point","coordinates":[-92.22,46.72]}},{"type":"Feature","properties":{"name":"Afton Alps","country":"USA"},"geometry":{"type":"Point","coordinates":[-92.79,44.86]}},{"type":"Feature","properties":{"name":"Welch Village","country":"USA"},"geometry":{"type":"Point","coordinates":[-92.74,44.56]}},{"type":"Feature","properties":{"name":"Giants Ridge","country":"USA"},"geometry":{"type":"Point","coordinates":[-92.3,47.57]}},{"type":"Feature","properties":{"name":"Mount Bohemia","country":"USA"},"geometry":{"type":"Point","coordinates":[-87.92,47.39]}},{"type":"Feature","properties":{"name":"Boyne Mountain","country":"USA"},"geometry":{"type":"Point","coordinates":[-84.93,45.16]}},{"type":"Feature","properties":{"name":"Boyne Highlands","country":"USA"},"geometry":{"type":"Point","coordinates":[-84.93,45.47]}},{"type":"Feature","properties":{"name":"Crystal Mountain MI","country":"USA"},"geometry":{"type":"Point","coordinates":[-85.99,44.52]}},{"type":"Feature","properties":{"name":"Schuss Mountain","country":"USA"},"geometry":{"type":"Point","coordinates":[-85.12,44.98]}},{"type":"Feature","properties":{"name":"Cannonsburg","country":"USA"},"geometry":{"type":"Point","coordinates":[-85.5,43.05]}},{"type":"Feature","properties":{"name":"Mount Brighton","country":"USA"},"geometry":{"type":"Point","coordinates":[-83.81,42.54]}},{"type":"Feature","properties":{"name":"Alpine Valley MI","country":"USA"},"geometry":{"type":"Point","coordinates":[-83.56,42.74]}},{"type":"Feature","properties":{"name":"Pine Knob","country":"USA"},"geometry":{"type":"Point","coordinates":[-83.45,42.75]}},{"type":"Feature","properties":{"name":"Mt Holly","country":"USA"},"geometry":{"type":"Point","coordinates":[-83.55,42.82]}},{"type":"Feature","properties":{"name":"Snow Trails","country":"USA"},"geometry":{"type":"Point","coordinates":[-82.52,40.67]}},{"type":"Feature","properties":{"name":"Mad River Mountain","country":"USA"},"geometry":{"type":"Point","coordinates":[-83.65,40.32]}},{"type":"Feature","properties":{"name":"Boston Mills","country":"USA"},"geometry":{"type":"Point","coordinates":[-81.56,41.22]}},{"type":"Feature","properties":{"name":"Brandywine","country":"USA"},"geometry":{"type":"Point","coordinates":[-81.56,41.24]}},{"type":"Feature","properties":{"name":"Peek'n Peak","country":"USA"},"geometry":{"type":"Point","coordinates":[-79.68,42.07]}},{"type":"Feature","properties":{"name":"Holiday Valley","country":"USA"},"geometry":{"type":"Point","coordinates":[-78.68,42.27]}},{"type":"Feature","properties":{"name":"Greek Peak","country":"USA"},"geometry":{"type":"Point","coordinates":[-76.15,42.47]}},{"type":"Feature","properties":{"name":"Gore Mountain","country":"USA"},"geometry":{"type":"Point","coordinates":[-74.05,43.67]}},{"type":"Feature","properties":{"name":"Whiteface","country":"USA"},"geometry":{"type":"Point","coordinates":[-73.86,44.37]}},{"type":"Feature","properties":{"name":"Killington","country":"USA"},"geometry":{"type":"Point","coordinates":[-72.8,43.63]}},{"type":"Feature","properties":{"name":"Stowe","country":"USA"},"geometry":{"type":"Point","coordinates":[-72.78,44.53]}},{"type":"Feature","properties":{"name":"Sugarbush","country":"USA"},"geometry":{"type":"Point","coordinates":[-72.89,44.14]}},{"type":"Feature","properties":{"name":"Mad River Glen","country":"USA"},"geometry":{"type":"Point","coordinates":[-72.84,44.2]}},{"type":"Feature","properties":{"name":"Jay Peak","country":"USA"},"geometry":{"type":"Point","coordinates":[-72.53,44.93]}},{"type":"Feature","properties":{"name":"Okemo","country":"USA"},"geometry":{"type":"Point","coordinates":[-72.72,43.4]}},{"type":"Feature","properties":{"name":"Stratton","country":"USA"},"geometry":{"type":"Point","coordinates":[-72.91,43.11]}},{"type":"Feature","properties":{"name":"Mount Snow","country":"USA"},"geometry":{"type":"Point","coordinates":[-72.9,42.96]}},{"type":"Feature","properties":{"name":"Sunday River","country":"USA"},"geometry":{"type":"Point","coordinates":[-70.85,44.47]}},{"type":"Feature","properties":{"name":"Sugarloaf","country":"USA"},"geometry":{"type":"Point","coordinates":[-70.31,45.05]}},{"type":"Feature","properties":{"name":"Saddleback","country":"USA"},"geometry":{"type":"Point","coordinates":[-70.53,44.94]}},{"type":"Feature","properties":{"name":"Loon Mountain","country":"USA"},"geometry":{"type":"Point","coordinates":[-71.63,44.04]}},{"type":"Feature","properties":{"name":"Cannon Mountain","country":"USA"},"geometry":{"type":"Point","coordinates":[-71.7,44.16]}},{"type":"Feature","properties":{"name":"Bretton Woods","country":"USA"},"geometry":{"type":"Point","coordinates":[-71.44,44.26]}},{"type":"Feature","properties":{"name":"Attitash","country":"USA"},"geometry":{"type":"Point","coordinates":[-71.23,44.08]}},{"type":"Feature","properties":{"name":"Wildcat Mountain","country":"USA"},"geometry":{"type":"Point","coordinates":[-71.2,44.26]}},{"type":"Feature","properties":{"name":"Waterville Valley","country":"USA"},"geometry":{"type":"Point","coordinates":[-71.53,43.97]}}]}