{"type":"FeatureCollection","features":[{"type":"Feature","properties":{"ObjectID":1,"name":"Vail","status":"open","note":"Groomed AM","validated":1},"geometry":{"type":"Point","coordinates":[-106.3742,39.6061]}},{"type":"Feature","properties":{"ObjectID":2,"name":"Breckenridge","status":"open","note":"Avalanche hold on N face","validated":1},"geometry":{"type":"Point","coordinates":[-106.0384,39.4817]}},{"type":"Feature","properties":{"ObjectID":3,"name":"Keystone","status":"hold","note":"Wind hold upper lifts","validated":1},"geometry":{"type":"Point","coordinates":[-105.9347,39.6069]}},{"type":"Feature","properties":{"ObjectID":4,"name":"Copper Mountain","status":"closed","note":"Closed midweek","validated":1},"geometry":{"type":"Point","coordinates":[-106.1561,39.5022]}},{"type":"Feature","properties":{"ObjectID":5,"name":"Aspen Mountain","status":"open","note":"Powder day — early open","validated":1},"geometry":{"type":"Point","coordinates":[-106.8183,39.1864]}},{"type":"Feature","properties":{"ObjectID":6,"name":"Snowmass","status":"open","note":"Groomed AM","validated":1},"geometry":{"type":"Point","coordinates":[-106.9513,39.2089]}},{"type":"Feature","properties":{"ObjectID":7,"name":"Winter Park","status":"open","note":"Avalanche hold on N face","validated":1},"geometry":{"type":"Point","coordinates":[-105.7628,39.8868]}},{"type":"Feature","properties":{"ObjectID":8,"name":"Steamboat","status":"hold","note":"Wind hold upper lifts","validated":1},"geometry":{"type":"Point","coordinates":[-106.8075,40.4572]}},{"type":"Feature","properties":{"ObjectID":9,"name":"Telluride","status":"closed","note":"Closed midweek","validated":1},"geometry":{"type":"Point","coordinates":[-107.8123,37.9375]}},{"type":"Feature","properties":{"ObjectID":10,"name":"Crested Butte","status":"open","note":"Powder day — early open","validated":1},"geometry":{"type":"Point","coordinates":[-106.9658,38.8997]}},{"type":"Feature","properties":{"ObjectID":11,"name":"Park City","status":"open","note":"Groomed AM","validated":1},"geometry":{"type":"Point","coordinates":[-111.508,40.6514]}},{"type":"Feature","properties":{"ObjectID":12,"name":"Deer Valley","status":"open","note":"Avalanche hold on N face","validated":1},"geometry":{"type":"Point","coordinates":[-111.4906,40.6374]}}]}